[{"OBJECT_NAME":"COSMOS 2585 (RODNIK-S 19)","OBJECT_ID":"2025-054A","EPOCH":"2026-03-09T21:16:39.260928","MEAN_MOTION":12.42895217,"ECCENTRICITY":0.0023382,"INCLINATION":82.4953,"RA_OF_ASC_NODE":140.4568,"ARG_OF_PERICENTER":249.043,"MEAN_ANOMALY":110.8147,"EPHEMERIS_TYPE":0,"CLASSIFICATION_TYPE":"U","NORAD_CAT_ID":63288,"ELEMENT_SET_NO":999,"REV_AT_EPOCH":4452,"BSTAR":4.7192e-5,"MEAN_MOTION_DOT":1.6e-7,"MEAN_MOTION_DDOT":0},{"OBJECT_NAME":"DELTA 1 DEB","OBJECT_ID":"1975-052F","EPOCH":"2026-03-09T15:25:28.493760","MEAN_MOTION":12.61211569,"ECCENTRICITY":0.0439949,"INCLINATION":99.4392,"RA_OF_ASC_NODE":120.4386,"ARG_OF_PERICENTER":69.8147,"MEAN_ANOMALY":56.355,"EPHEMERIS_TYPE":0,"CLASSIFICATION_TYPE":"U","NORAD_CAT_ID":21270,"ELEMENT_SET_NO":999,"REV_AT_EPOCH":59662,"BSTAR":0.00066655,"MEAN_MOTION_DOT":1.41e-6,"MEAN_MOTION_DDOT":0}]
